OBJECT_NAME,OBJECT_ID,EPOCH,MEAN_MOTION,ECCENTRICITY,INCLINATION,RA_OF_ASC_NODE,ARG_OF_PERICENTER,MEAN_ANOMALY,EPHEMERIS_TYPE,CLASSIFICATION_TYPE,NORAD_CAT_ID,ELEMENT_SET_NO,REV_AT_EPOCH,BSTAR,MEAN_MOTION_DOT,MEAN_MOTION_DDOT
COSMOS 2251 DEB,1993-036BPB,2024-07-04T00:19:33.955680,14.58801823,.0013825,74.0295,40.4823,199.8303,160.2326,0,U,37546,999,77532,.18005E-2,.841E-4,0
COSMOS 2251 DEB,1993-036BPC,2024-07-06T07:32:36.308832,14.91710260,.0009311,74.0258,147.0382,55.7122,304.4941,0,U,37547,999,58725,.30573E-2,.30901E-3,0
COSMOS 2251 DEB,1993-036BPF,2024-07-07T23:11:19.217760,15.40385483,.0022343,74.0135,53.2688,190.7369,169.3365,0,U,37956,999,72759,.66724E-2,.281998E-2,0
COSMOS 2251 DEB,1993-036BPJ,2024-07-07T09:18:02.877984,14.52226819,.0063527,74.0142,330.2106,238.6203,151.8069,0,U,37959,999,72584,.80089E-3,.3309E-4,0
COSMOS 2251 DEB,1993-036BPK,2024-07-07T12:37:18.308640,14.04126084,.0260342,74.0616,21.7099,164.7988,196.1167,0,U,37960,999,70213,.13836E-2,.2943E-4,0
COSMOS 2251 DEB,1993-036BPL,2024-07-06T14:15:25.590816,14.50394988,.0047264,74.0446,48.6265,257.8181,101.7683,0,U,37961,999,72443,.7755E-3,.3044E-4,0
COSMOS 2251 DEB,1993-036BPR,2024-07-02T19:14:18.501792,14.72158874,.0017521,73.9881,211.4275,209.4341,150.5845,0,U,37966,999,77476,.1773E-2,.11184E-3,0
COSMOS 2251 DEB,1993-036BPS,2024-07-05T20:40:05.978784,14.31651425,.0168349,74.0195,23.5814,286.8375,71.4370,0,U,37967,999,57198,.10679E-2,.3298E-4,0
COSMOS 2251 DEB,1993-036BPT,2024-07-06T10:44:33.985248,14.85330174,.0105408,74.0058,248.2862,139.6700,221.2359,0,U,37968,999,52392,.88634E-3,.8397E-4,0
COSMOS 2251 DEB,1993-036BPW,2024-07-05T23:40:27.923520,14.37484874,.0078352,73.9980,300.0329,197.5646,162.2796,0,U,37971,999,76421,.24699E-2,.7642E-4,0
COSMOS 2251 DEB,1993-036BPY,2024-06-21T11:06:22.841568,14.37884602,.0037943,74.0357,220.6733,68.3432,292.1756,0,U,37973,999,57225,.55232E-3,.1655E-4,0
COSMOS 2251 DEB,1993-036BQA,2024-07-06T10:56:52.807200,14.49058307,.0147354,74.0130,252.4159,11.9765,348.4834,0,U,37975,999,62075,.18994E-2,.8261E-4,0
COSMOS 2251 DEB,1993-036BQC,2024-06-28T23:17:24.031392,14.71259192,.0016179,73.9716,46.1169,277.6078,82.3255,0,U,37977,999,695,.59853E-2,.37192E-3,0
COSMOS 2251 DEB,1993-036BQD,2024-07-06T00:28:33.566016,14.84240505,.0064819,74.0649,96.8799,250.0410,109.3779,0,U,37978,999,465,.18653E-2,.16218E-3,0
COSMOS 2251 DEB,1993-036BQL,2024-07-06T13:45:40.191840,14.35164033,.0020695,74.0245,147.6277,36.6157,323.6404,0,U,37985,999,57396,.69447E-4,.173E-5,0
COSMOS 2251 DEB,1993-036BQP,2024-07-07T07:29:40.493472,14.58944028,.0077499,74.0681,308.7811,124.8422,236.0064,0,U,37988,999,15732,.12993E-2,.6329E-4,0
COSMOS 2251 DEB,1993-036BQU,2024-07-06T23:19:48.769536,14.50020953,.0027525,74.0281,80.1191,290.2452,69.5749,0,U,37993,999,57696,.11527E-2,.4462E-4,0
COSMOS 2251 DEB,1993-036BQV,2024-07-08T04:28:58.084896,14.37489228,.0023331,74.0358,159.2770,5.8245,354.3175,0,U,37994,999,69567,.47802E-3,.1409E-4,0
COSMOS 2251 DEB,1993-036BQX,2024-07-06T23:51:50.324544,13.95107918,.0256545,74.0718,34.3893,269.8535,87.3201,0,U,37996,999,48786,.20415E-2,.3599E-4,0
COSMOS 2251 DEB,1993-036BQZ,2024-07-08T04:45:19.558656,14.41650080,.0020488,74.0380,126.6710,327.3289,32.6598,0,U,37998,999,78134,.72959E-3,.2356E-4,0
COSMOS 2251 DEB,1993-036BRC,2024-07-08T00:53:02.154336,14.69921381,.0073531,74.0080,75.9245,354.1145,70.2038,0,U,38001,999,76927,.88058E-3,.5466E-4,0
COSMOS 2251 DEB,1993-036BRF,2024-07-07T03:42:23.299776,14.71195961,.0015434,74.0305,345.2985,130.6232,229.6285,0,U,38004,999,58066,.38892E-2,.24069E-3,0
COSMOS 2251 DEB,1993-036BRH,2024-07-06T00:19:04.946880,14.33318734,.0091489,73.8560,299.4548,356.2361,3.8089,0,U,38006,999,55404,.20806E-2,.5982E-4,0
COSMOS 2251 DEB,1993-036BRL,2024-07-07T23:30:03.733632,13.56215770,.0380941,73.9537,37.5222,117.7442,7.0075,0,U,38054,999,65859,.41415E-2,.4628E-4,0
COSMOS 2251 DEB,1993-036BRM,2024-07-07T03:31:32.068416,14.66772692,.0075624,74.0135,147.5280,46.1301,327.4834,0,U,38055,999,52976,.12048E-2,.6985E-4,0
COSMOS 2251 DEB,1993-036BRS,2024-07-05T19:41:29.903136,14.58963968,.0062178,74.0422,219.4943,100.2361,260.5824,0,U,38060,999,64294,.55713E-3,.2656E-4,0
COSMOS 2251 DEB,1993-036BRU,2024-07-05T12:22:57.254016,14.68434203,.0021366,74.0186,249.8858,152.6889,272.3845,0,U,38062,999,73038,.20844E-2,.12097E-3,0
COSMOS 2251 DEB,1993-036BRW,2024-07-07T12:38:38.631264,14.49703302,.005217,74.0256,32.9874,278.5607,80.9643,0,U,38064,999,64263,.71043E-3,.2754E-4,0
COSMOS 2251 DEB,1993-036BRX,2024-07-07T11:22:49.082016,14.86311639,.001266,74.0184,323.4170,111.6091,314.1509,0,U,38065,999,67274,.49948E-2,.44308E-3,0
COSMOS 2251 DEB,1993-036BRZ,2024-07-05T19:14:50.487936,14.57687032,.0073074,74.0161,196.9151,115.5609,58.7568,0,U,38067,999,54896,.40783E-3,.19E-4,0
COSMOS 2251 DEB,1993-036BSA,2024-07-05T10:14:18.056832,14.34438436,.0025254,74.0205,192.4592,46.2799,314.0439,0,U,38068,999,59109,.35004E-3,.963E-5,0
COSMOS 2251 DEB,1993-036BSB,2024-07-07T22:51:24.360192,14.78284152,.0034763,74.1802,16.4823,327.6442,182.9605,0,U,38069,999,67889,.60096E-2,.44354E-3,0
COSMOS 2251 DEB,1993-036BSE,2024-07-06T16:09:40.599648,14.71909006,.0015126,74.0430,332.4384,123.5760,236.6858,0,U,38190,999,71788,.25571E-2,.16055E-3,0
COSMOS 2251 DEB,1993-036BSM,2024-07-05T06:28:38.605728,14.47281594,.0185741,73.9501,287.6564,284.2995,73.7602,0,U,38197,999,78081,.18174E-2,.8234E-4,0
COSMOS 2251 DEB,1993-036BSP,2024-07-07T11:17:38.024736,13.63249072,.0374678,73.9540,200.9427,231.1938,125.5166,0,U,38199,999,53886,.49358E-3,.599E-5,0
COSMOS 2251 DEB,1993-036BSY,2024-07-07T22:58:50.343168,14.59933508,.0011446,74.0168,18.0691,207.4938,305.3562,0,U,38208,999,68396,.20277E-2,.971E-4,0
COSMOS 2251 DEB,1993-036BTC,2024-07-06T22:49:17.475744,14.71831420,.010492,74.0542,19.7376,224.5489,134.7215,0,U,38212,999,73586,.42574E-3,.2867E-4,0
COSMOS 2251 DEB,1993-036BTD,2024-07-06T02:31:26.694048,14.78306090,.0015556,74.0391,323.3894,111.3839,248.8998,0,U,38213,999,76583,.44188E-2,.32306E-3,0
COSMOS 2251 DEB,1993-036BTL,2024-07-07T22:47:08.153952,14.62488458,.0011868,74.0277,15.7246,173.8588,186.2726,0,U,38220,999,77767,.25355E-2,.12859E-3,0
COSMOS 2251 DEB,1993-036BTP,2024-07-05T22:36:42.578208,14.29557661,.0096599,74.0114,66.9410,297.7334,75.0507,0,U,38479,999,75407,.14533E-2,.3884E-4,0
COSMOS 2251 DEB,1993-036BTR,2024-07-06T07:12:00.545184,13.90698529,.0243448,73.9318,191.2865,238.0601,119.6648,0,U,38481,999,51757,.10923E-2,.1707E-4,0
COSMOS 2251 DEB,1993-036BTT,2024-07-05T19:04:04.535616,14.23756233,.011991,74.2627,228.1789,130.1425,231.0302,0,U,38483,999,55991,.14239E-2,.3483E-4,0
COSMOS 2251 DEB,1993-036BTV,2024-07-06T06:41:54.304800,14.80432171,.0026394,74.0093,137.0252,49.2274,311.1186,0,U,38485,999,9999,.25477E-2,.19613E-3,0
COSMOS 2251 DEB,1993-036BTW,2024-07-02T15:38:03.571872,14.51657435,.003732,73.9512,143.1174,42.6869,132.3064,0,U,38486,999,67711,.33278E-2,.13466E-3,0
COSMOS 2251 DEB,1993-036BTX,2024-07-06T22:58:41.623680,14.82311061,.0054214,73.9949,19.1991,310.7890,48.8589,0,U,38487,999,58954,.10705E-2,.8754E-4,0
COSMOS 2251 DEB,1993-036BTY,2024-06-17T08:09:32.084352,14.64033897,.0063545,74.0437,194.5174,78.1242,295.2957,0,U,39109,999,57201,.11466E-2,.6167E-4,0
COSMOS 2251 DEB,1993-036BTZ,2024-07-08T05:28:19.080768,14.67862680,.0102797,73.9606,0.1287,355.7553,178.9948,0,U,39110,999,63642,.32819E-3,.1995E-4,0
COSMOS 2251 DEB,1993-036BUA,2024-07-07T04:52:06.591648,14.65623809,.0018165,74.0268,4.5960,172.5221,187.6222,0,U,39111,999,60448,.24473E-2,.13327E-3,0
COSMOS 2251 DEB,1993-036BUC,2024-07-03T10:52:36.605280,14.73680041,.0056582,74.0037,103.2919,33.4473,327.0252,0,U,39546,999,56618,.16575E-2,.1108E-3,0
COSMOS 2251 DEB,1993-036BUD,2024-07-06T02:51:29.178144,14.65484832,.0010161,74.0175,339.4074,173.1846,307.5616,0,U,39547,999,56245,.29345E-2,.15916E-3,0
COSMOS 2251 DEB,1993-036BUJ,2024-07-06T02:14:32.078112,14.95560808,.0011799,74.0192,103.5860,59.6520,4.3895,0,U,39552,999,56766,.3712E-2,.41448E-3,0
COSMOS 2251 DEB,1993-036BUK,2024-07-03T15:17:27.634560,13.96226243,.0208804,74.0273,160.7226,55.7576,306.3140,0,U,39553,999,68249,.2118E-2,.3478E-4,0
COSMOS 2251 DEB,1993-036BUL,2024-07-06T12:54:50.282208,14.72498127,.001294,74.0276,234.5271,139.6347,292.5686,0,U,39554,999,56577,.96085E-3,.6082E-4,0
COSMOS 2251 DEB,1993-036BUN,2024-07-07T04:40:34.701312,14.46069358,.0168072,73.9326,163.2684,32.7891,328.3561,0,U,39583,999,54170,.31889E-2,.13555E-3,0
COSMOS 2251 DEB,1993-036BUQ,2024-07-05T19:14:40.244352,14.56138945,.0068385,74.0411,218.9176,113.9715,246.8629,0,U,39585,999,54872,.31588E-3,.1409E-4,0
COSMOS 2251 DEB,1993-036BUR,2024-07-05T12:15:01.890720,14.19289731,.0103257,74.0108,89.9217,345.3312,190.6816,0,U,39586,999,53514,.81017E-3,.1767E-4,0
COSMOS 2251 DEB,1993-036BUT,2024-07-06T05:35:32.464032,14.62253964,.0059908,74.1196,173.1200,233.7209,138.8768,0,U,39588,999,64998,.28955E-2,.14982E-3,0
COSMOS 2251 DEB,1993-036BUW,2024-07-06T03:56:04.102368,14.39127514,.0029228,74.0243,138.0913,16.4341,354.5220,0,U,39591,999,54222,.75787E-3,.2331E-4,0
COSMOS 2251 DEB,1993-036BUX,2024-07-06T04:56:05.907552,14.39136552,.001666,74.0327,139.2471,349.0281,11.0507,0,U,40218,999,51308,.59404E-3,.1815E-4,0
COSMOS 2251 DEB,1993-036BVC,2024-07-05T08:56:55.241376,14.62273851,.0022945,73.9556,51.3179,335.8609,199.5337,0,U,40223,999,51595,.30044E-2,.15217E-3,0
COSMOS 2251 DEB,1993-036BVD,2024-07-06T05:56:58.482240,14.84377442,.0096461,73.9866,177.4305,246.9668,124.9125,0,U,40224,999,63200,.19487E-2,.17798E-3,0
COSMOS 2251 DEB,1993-036BVH,2024-07-05T14:25:07.137120,14.38908089,.0024559,74.0547,149.9559,340.8779,137.7619,0,U,40228,999,64906,.52519E-3,.1598E-4,0
COSMOS 2251 DEB,1993-036BVK,2024-07-07T02:15:12.114144,14.43857165,.0020845,74.0508,125.0439,308.0867,64.9873,0,U,40230,999,51397,.95824E-3,.3249E-4,0
COSMOS 2251 DEB,1993-036BVN,2024-07-06T22:58:45.078816,14.49434062,.0055972,73.9441,19.7954,209.2880,150.5139,0,U,40233,999,51521,.10866E-2,.4215E-4,0
